HULIANWANG DIGUI-124    
1 67064U 25295F   26193.67586345 -.00000092  00000+0  68780-4 0  9995
2 67064  50.0006 293.9275 0001119 181.1929 178.8940 13.29329023 28894
HULIANWANG DIGUI-125    
1 67065U 25295G   26193.66744573 -.00000099  00000+0  53843-4 0  9995
2 67065  49.9998 293.8677 0001095 180.0925 179.9947 13.29329579 28899
HULIANWANG DIGUI-126    
1 67066U 25295H   26193.65904010 -.00000080  00000+0  94107-4 0  9997
2 67066  49.9999 293.8282 0001127 179.5476 180.5397 13.29322593 28899
HULIANWANG DIGUI-127    
1 67067U 25295J   26193.72583819 -.00000086  00000+0  81840-4 0  9992
2 67067  50.0014 293.5489 0001101 179.0104 181.0770 13.29330726 28902
HULIANWANG DIGUI-128    
1 67236U 25311A   26193.74791583 -.00000102  00000+0  47102-4 0  9992
2 67236  50.0094  23.8830 0000946  66.1126 293.9845 13.29323686 26741
HULIANWANG DIGUI-129    
1 67237U 25311B   26193.75620002 -.00000115  00000+0  19473-4 0  9995
2 67237  50.0085  23.9080 0000888  66.6406 293.4560 13.29324816 26746
HULIANWANG DIGUI-130    
1 67238U 25311C   26193.80637738 -.00000092  00000+0  69479-4 0  9991
2 67238  50.0065  24.1304 0000986  64.3235 295.7739 13.29323613 26748
HULIANWANG DIGUI-131    
1 67239U 25311D   26193.73956338 -.00000105  00000+0  40169-4 0  9994
2 67239  50.0064  24.4357 0001007  64.2879 295.8097 13.29323315 26733
HULIANWANG DIGUI-132    
1 67240U 25311E   26193.78965084 -.00000103  00000+0  45206-4 0  9994
2 67240  50.0075  24.0568 0000950  61.8267 298.2701 13.29324158 26743
HULIANWANG DIGUI-133    
1 67241U 25311F   26193.77296983 -.00000115  00000+0  20133-4 0  9994
2 67241  50.0118  24.0441 0000926  64.6851 295.4117 13.29324022 26745
HULIANWANG DIGUI-134    
1 67242U 25311G   26193.78129227 -.00000114  00000+0  20779-4 0  9997
2 67242  50.0046  23.9728 0000963  62.7756 297.3214 13.29323773 26747
HULIANWANG DIGUI-135    
1 67243U 25311H   26193.79800287 -.00000107  00000+0  36482-4 0  9991
2 67243  50.0035  24.0354 0000987  62.4604 297.6368 13.29323589 26746
HULIANWANG DIGUI-136    
1 67244U 25311J   26193.76457438 -.00000109  00000+0  32026-4 0  9997
2 67244  50.0105  23.9813 0000881  66.3795 293.7169 13.29324451 26745
HULIANWANG DIGUI-137    
1 67435U 26007A   26193.71688832 -.00000113  00000+0  23563-4 0  9992
2 67435  50.0097 354.2948 0000917 105.7868 254.3106 13.29326902 24188
HULIANWANG DIGUI-138    
1 67436U 26007B   26193.80880345 -.00000102  00000+0  46810-4 0  9994
2 67436  50.0080 354.0814 0000908 105.9637 254.1336 13.29325312 24195
HULIANWANG DIGUI-139    
1 67437U 26007C   26193.72510591 -.00000100  00000+0  51380-4 0  9995
2 67437  50.0046 354.2631 0000904  95.2044 264.8931 13.29328283 24184
