{"fetched_at":"2026-07-13T05:28:12.237Z","source":"https://celestrak.org/NORAD/elements/gp.php?NAME=HULIANWANG&FORMAT=JSON","constellation":"guowang","records":[{"OBJECT_NAME":"HULIANWANG DIGUI-124","OBJECT_ID":"2025-295F","EPOCH":"2026-07-12T16:13:14.602080","CLASSIFICATION_TYPE":"U","MEAN_MOTION":13.29329023,"ECCENTRICITY":0.0001119,"INCLINATION":50.0006,"RA_OF_ASC_NODE":293.9275,"ARG_OF_PERICENTER":181.1929,"MEAN_ANOMALY":178.894,"EPHEMERIS_TYPE":0,"NORAD_CAT_ID":67064,"ELEMENT_SET_NO":999,"REV_AT_EPOCH":2889,"BSTAR":0.00006878,"MEAN_MOTION_DOT":-9.2e-7,"MEAN_MOTION_DDOT":0},{"OBJECT_NAME":"HULIANWANG DIGUI-125","OBJECT_ID":"2025-295G","EPOCH":"2026-07-12T16:01:07.311072","CLASSIFICATION_TYPE":"U","MEAN_MOTION":13.29329579,"ECCENTRICITY":0.0001095,"INCLINATION":49.9998,"RA_OF_ASC_NODE":293.8677,"ARG_OF_PERICENTER":180.0925,"MEAN_ANOMALY":179.9947,"EPHEMERIS_TYPE":0,"NORAD_CAT_ID":67065,"ELEMENT_SET_NO":999,"REV_AT_EPOCH":2889,"BSTAR":0.000053843,"MEAN_MOTION_DOT":-9.9e-7,"MEAN_MOTION_DDOT":0},{"OBJECT_NAME":"HULIANWANG DIGUI-126","OBJECT_ID":"2025-295H","EPOCH":"2026-07-12T15:49:01.064640","CLASSIFICATION_TYPE":"U","MEAN_MOTION":13.29322593,"ECCENTRICITY":0.0001127,"INCLINATION":49.9999,"RA_OF_ASC_NODE":293.8282,"ARG_OF_PERICENTER":179.5476,"MEAN_ANOMALY":180.5397,"EPHEMERIS_TYPE":0,"NORAD_CAT_ID":67066,"ELEMENT_SET_NO":999,"REV_AT_EPOCH":2889,"BSTAR":0.000094107,"MEAN_MOTION_DOT":-8e-7,"MEAN_MOTION_DDOT":0},{"OBJECT_NAME":"HULIANWANG DIGUI-127","OBJECT_ID":"2025-295J","EPOCH":"2026-07-12T17:25:12.419616","CLASSIFICATION_TYPE":"U","MEAN_MOTION":13.29330726,"ECCENTRICITY":0.0001101,"INCLINATION":50.0014,"RA_OF_ASC_NODE":293.5489,"ARG_OF_PERICENTER":179.0104,"MEAN_ANOMALY":181.077,"EPHEMERIS_TYPE":0,"NORAD_CAT_ID":67067,"ELEMENT_SET_NO":999,"REV_AT_EPOCH":2890,"BSTAR":0.00008184,"MEAN_MOTION_DOT":-8.6e-7,"MEAN_MOTION_DDOT":0},{"OBJECT_NAME":"HULIANWANG DIGUI-128","OBJECT_ID":"2025-311A","EPOCH":"2026-07-12T17:56:59.927712","CLASSIFICATION_TYPE":"U","MEAN_MOTION":13.29323686,"ECCENTRICITY":0.0000946,"INCLINATION":50.0094,"RA_OF_ASC_NODE":23.883,"ARG_OF_PERICENTER":66.1126,"MEAN_ANOMALY":293.9845,"EPHEMERIS_TYPE":0,"NORAD_CAT_ID":67236,"ELEMENT_SET_NO":999,"REV_AT_EPOCH":2674,"BSTAR":0.000047102,"MEAN_MOTION_DOT":-0.00000102,"MEAN_MOTION_DDOT":0},{"OBJECT_NAME":"HULIANWANG DIGUI-129","OBJECT_ID":"2025-311B","EPOCH":"2026-07-12T18:08:55.681728","CLASSIFICATION_TYPE":"U","MEAN_MOTION":13.29324816,"ECCENTRICITY":0.0000888,"INCLINATION":50.0085,"RA_OF_ASC_NODE":23.908,"ARG_OF_PERICENTER":66.6406,"MEAN_ANOMALY":293.456,"EPHEMERIS_TYPE":0,"NORAD_CAT_ID":67237,"ELEMENT_SET_NO":999,"REV_AT_EPOCH":2674,"BSTAR":0.000019473,"MEAN_MOTION_DOT":-0.00000115,"MEAN_MOTION_DDOT":0},{"OBJECT_NAME":"HULIANWANG DIGUI-130","OBJECT_ID":"2025-311C","EPOCH":"2026-07-12T19:21:11.005632","CLASSIFICATION_TYPE":"U","MEAN_MOTION":13.29323613,"ECCENTRICITY":0.0000986,"INCLINATION":50.0065,"RA_OF_ASC_NODE":24.1304,"ARG_OF_PERICENTER":64.3235,"MEAN_ANOMALY":295.7739,"EPHEMERIS_TYPE":0,"NORAD_CAT_ID":67238,"ELEMENT_SET_NO":999,"REV_AT_EPOCH":2674,"BSTAR":0.000069479,"MEAN_MOTION_DOT":-9.2e-7,"MEAN_MOTION_DDOT":0},{"OBJECT_NAME":"HULIANWANG DIGUI-131","OBJECT_ID":"2025-311D","EPOCH":"2026-07-12T17:44:58.276032","CLASSIFICATION_TYPE":"U","MEAN_MOTION":13.29323315,"ECCENTRICITY":0.0001007,"INCLINATION":50.0064,"RA_OF_ASC_NODE":24.4357,"ARG_OF_PERICENTER":64.2879,"MEAN_ANOMALY":295.8097,"EPHEMERIS_TYPE":0,"NORAD_CAT_ID":67239,"ELEMENT_SET_NO":999,"REV_AT_EPOCH":2673,"BSTAR":0.000040169,"MEAN_MOTION_DOT":-0.00000105,"MEAN_MOTION_DDOT":0},{"OBJECT_NAME":"HULIANWANG DIGUI-132","OBJECT_ID":"2025-311E","EPOCH":"2026-07-12T18:57:05.832576","CLASSIFICATION_TYPE":"U","MEAN_MOTION":13.29324158,"ECCENTRICITY":0.000095,"INCLINATION":50.0075,"RA_OF_ASC_NODE":24.0568,"ARG_OF_PERICENTER":61.8267,"MEAN_ANOMALY":298.2701,"EPHEMERIS_TYPE":0,"NORAD_CAT_ID":67240,"ELEMENT_SET_NO":999,"REV_AT_EPOCH":2674,"BSTAR":0.000045206,"MEAN_MOTION_DOT":-0.00000103,"MEAN_MOTION_DDOT":0},{"OBJECT_NAME":"HULIANWANG DIGUI-133","OBJECT_ID":"2025-311F","EPOCH":"2026-07-12T18:33:04.593312","CLASSIFICATION_TYPE":"U","MEAN_MOTION":13.29324022,"ECCENTRICITY":0.0000926,"INCLINATION":50.0118,"RA_OF_ASC_NODE":24.0441,"ARG_OF_PERICENTER":64.6851,"MEAN_ANOMALY":295.4117,"EPHEMERIS_TYPE":0,"NORAD_CAT_ID":67241,"ELEMENT_SET_NO":999,"REV_AT_EPOCH":2674,"BSTAR":0.000020133,"MEAN_MOTION_DOT":-0.00000115,"MEAN_MOTION_DDOT":0},{"OBJECT_NAME":"HULIANWANG DIGUI-134","OBJECT_ID":"2025-311G","EPOCH":"2026-07-12T18:45:03.652128","CLASSIFICATION_TYPE":"U","MEAN_MOTION":13.29323773,"ECCENTRICITY":0.0000963,"INCLINATION":50.0046,"RA_OF_ASC_NODE":23.9728,"ARG_OF_PERICENTER":62.7756,"MEAN_ANOMALY":297.3214,"EPHEMERIS_TYPE":0,"NORAD_CAT_ID":67242,"ELEMENT_SET_NO":999,"REV_AT_EPOCH":2674,"BSTAR":0.000020779,"MEAN_MOTION_DOT":-0.00000114,"MEAN_MOTION_DDOT":0},{"OBJECT_NAME":"HULIANWANG DIGUI-135","OBJECT_ID":"2025-311H","EPOCH":"2026-07-12T19:09:07.447968","CLASSIFICATION_TYPE":"U","MEAN_MOTION":13.29323589,"ECCENTRICITY":0.0000987,"INCLINATION":50.0035,"RA_OF_ASC_NODE":24.0354,"ARG_OF_PERICENTER":62.4604,"MEAN_ANOMALY":297.6368,"EPHEMERIS_TYPE":0,"NORAD_CAT_ID":67243,"ELEMENT_SET_NO":999,"REV_AT_EPOCH":2674,"BSTAR":0.000036482,"MEAN_MOTION_DOT":-0.00000107,"MEAN_MOTION_DDOT":0},{"OBJECT_NAME":"HULIANWANG DIGUI-136","OBJECT_ID":"2025-311J","EPOCH":"2026-07-12T18:20:59.226432","CLASSIFICATION_TYPE":"U","MEAN_MOTION":13.29324451,"ECCENTRICITY":0.0000881,"INCLINATION":50.0105,"RA_OF_ASC_NODE":23.9813,"ARG_OF_PERICENTER":66.3795,"MEAN_ANOMALY":293.7169,"EPHEMERIS_TYPE":0,"NORAD_CAT_ID":67244,"ELEMENT_SET_NO":999,"REV_AT_EPOCH":2674,"BSTAR":0.000032026,"MEAN_MOTION_DOT":-0.00000109,"MEAN_MOTION_DDOT":0},{"OBJECT_NAME":"HULIANWANG DIGUI-137","OBJECT_ID":"2026-007A","EPOCH":"2026-07-12T17:12:19.150848","CLASSIFICATION_TYPE":"U","MEAN_MOTION":13.29326902,"ECCENTRICITY":0.0000917,"INCLINATION":50.0097,"RA_OF_ASC_NODE":354.2948,"ARG_OF_PERICENTER":105.7868,"MEAN_ANOMALY":254.3106,"EPHEMERIS_TYPE":0,"NORAD_CAT_ID":67435,"ELEMENT_SET_NO":999,"REV_AT_EPOCH":2418,"BSTAR":0.000023563,"MEAN_MOTION_DOT":-0.00000113,"MEAN_MOTION_DDOT":0},{"OBJECT_NAME":"HULIANWANG DIGUI-138","OBJECT_ID":"2026-007B","EPOCH":"2026-07-12T19:24:40.618080","CLASSIFICATION_TYPE":"U","MEAN_MOTION":13.29325312,"ECCENTRICITY":0.0000908,"INCLINATION":50.008,"RA_OF_ASC_NODE":354.0814,"ARG_OF_PERICENTER":105.9637,"MEAN_ANOMALY":254.1336,"EPHEMERIS_TYPE":0,"NORAD_CAT_ID":67436,"ELEMENT_SET_NO":999,"REV_AT_EPOCH":2419,"BSTAR":0.00004681,"MEAN_MOTION_DOT":-0.00000102,"MEAN_MOTION_DDOT":0},{"OBJECT_NAME":"HULIANWANG DIGUI-139","OBJECT_ID":"2026-007C","EPOCH":"2026-07-12T17:24:09.150624","CLASSIFICATION_TYPE":"U","MEAN_MOTION":13.29328283,"ECCENTRICITY":0.0000904,"INCLINATION":50.0046,"RA_OF_ASC_NODE":354.2631,"ARG_OF_PERICENTER":95.2044,"MEAN_ANOMALY":264.8931,"EPHEMERIS_TYPE":0,"NORAD_CAT_ID":67437,"ELEMENT_SET_NO":999,"REV_AT_EPOCH":2418,"BSTAR":0.00005138,"MEAN_MOTION_DOT":-0.000001,"MEAN_MOTION_DDOT":0}]}
